{
  "type": "FeatureCollection",
  "features": [
    {
      "type": "Feature",
      "properties": {
        "norad_id": 65731,
        "name": "1998-067XK",
        "group": "stations",
        "lat": 51.52577191642826,
        "lon": -156.64930248226796,
        "alt_km": 365.1548408353001,
        "timestamp": "2025-12-16T13:52:36.307174+00:00",
        "meta_object_name": "1998-067XK",
        "meta_object_id": "1998-067XK",
        "meta_epoch": "2025-12-15T17:36:02.993472",
        "meta_mean_motion": 15.66333624,
        "meta_eccentricity": 0.00048129,
        "meta_inclination": 51.6281,
        "meta_ra_of_asc_node": 122.0366,
        "meta_arg_of_pericenter": 264.6574,
        "meta_mean_anomaly": 95.3872,
        "meta_ephemeris_type": 0,
        "meta_classification_type": "U",
        "meta_norad_cat_id": 65731,
        "meta_element_set_no": 999,
        "meta_rev_at_epoch": 1361,
        "meta_bstar": 0.00074239237,
        "meta_mean_motion_dot": 0.00078692,
        "meta_mean_motion_ddot": 0,
        "tle_line1": "1 65731U 98067XK  25349.73336798  .00078692  00000+0  74239-3 0  9990",
        "tle_line2": "2 65731  51.6281 122.0366 0004812 264.6574  95.3872 15.66333624 13610"
      },
      "geometry": {
        "type": "Point",
        "coordinates": [
          -156.64930248226796,
          51.52577191642826
        ]
      }
    },
    {
      "type": "Feature",
      "properties": {
        "norad_id": 65732,
        "name": "RSP-03",
        "group": "stations",
        "lat": 50.22742936815913,
        "lon": -135.2311457095871,
        "alt_km": 356.93400137058234,
        "timestamp": "2025-12-16T13:52:36.307185+00:00",
        "meta_object_name": "RSP-03",
        "meta_object_id": "1998-067XL",
        "meta_epoch": "2025-12-15T09:56:23.959680",
        "meta_mean_motion": 15.69333488,
        "meta_eccentricity": 0.00056309,
        "meta_inclination": 51.6255,
        "meta_ra_of_asc_node": 122.8946,
        "meta_arg_of_pericenter": 270.0098,
        "meta_mean_anomaly": 90.0254,
        "meta_ephemeris_type": 0,
        "meta_classification_type": "U",
        "meta_norad_cat_id": 65732,
        "meta_element_set_no": 999,
        "meta_rev_at_epoch": 1358,
        "meta_bstar": 0.00085708712,
        "meta_mean_motion_dot": 0.00103156,
        "meta_mean_motion_ddot": 0,
        "tle_line1": "1 65732U 98067XL  25349.41416620  .00103156  00000+0  85709-3 0  9997",
        "tle_line2": "2 65732  51.6255 122.8946 0005630 270.0098  90.0254 15.69333488 13588"
      },
      "geometry": {
        "type": "Point",
        "coordinates": [
          -135.2311457095871,
          50.22742936815913
        ]
      }
    },
    {
      "type": "Feature",
      "properties": {
        "norad_id": 65733,
        "name": "GHS-01",
        "group": "stations",
        "lat": 47.520123097577645,
        "lon": -124.48915067123829,
        "alt_km": 338.84604767696874,
        "timestamp": "2025-12-16T13:52:36.307195+00:00",
        "meta_object_name": "GHS-01",
        "meta_object_id": "1998-067XM",
        "meta_epoch": "2025-12-15T17:38:00.008448",
        "meta_mean_motion": 15.76152522,
        "meta_eccentricity": 0.00075996,
        "meta_inclination": 51.6274,
        "meta_ra_of_asc_node": 119.7831,
        "meta_arg_of_pericenter": 301.7085,
        "meta_mean_anomaly": 58.3173,
        "meta_ephemeris_type": 0,
        "meta_classification_type": "U",
        "meta_norad_cat_id": 65733,
        "meta_element_set_no": 999,
        "meta_rev_at_epoch": 1365,
        "meta_bstar": 0.0011101643,
        "meta_mean_motion_dot": 0.00180872,
        "meta_mean_motion_ddot": 0,
        "tle_line1": "1 65733U 98067XM  25349.73472232  .00180872  00000+0  11102-2 0  9999",
        "tle_line2": "2 65733  51.6274 119.7831 0007599 301.7085  58.3173 15.76152522 13653"
      },
      "geometry": {
        "type": "Point",
        "coordinates": [
          -124.48915067123829,
          47.520123097577645
        ]
      }
    },
    {
      "type": "Feature",
      "properties": {
        "norad_id": 65941,
        "name": "YOTSUBA-KULOVER",
        "group": "stations",
        "lat": 42.852114808374154,
        "lon": -106.6390152465514,
        "alt_km": 382.8573601558628,
        "timestamp": "2025-12-16T13:52:36.307206+00:00",
        "meta_object_name": "YOTSUBA-KULOVER",
        "meta_object_id": "1998-067XN",
        "meta_epoch": "2025-12-15T18:54:55.792800",
        "meta_mean_motion": 15.59882351,
        "meta_eccentricity": 0.00014577,
        "meta_inclination": 51.6281,
        "meta_ra_of_asc_node": 124.6502,
        "meta_arg_of_pericenter": 281.9175,
        "meta_mean_anomaly": 78.1654,
        "meta_ephemeris_type": 0,
        "meta_classification_type": "U",
        "meta_norad_cat_id": 65941,
        "meta_element_set_no": 999,
        "meta_rev_at_epoch": 1033,
        "meta_bstar": 0.00065176428,
        "meta_mean_motion_dot": 0.00053323,
        "meta_mean_motion_ddot": 0,
        "tle_line1": "1 65941U 98067XN  25349.78814575  .00053323  00000+0  65176-3 0  9996",
        "tle_line2": "2 65941  51.6281 124.6502 0001457 281.9175  78.1654 15.59882351 10335"
      },
      "geometry": {
        "type": "Point",
        "coordinates": [
          -106.6390152465514,
          42.852114808374154
        ]
      }
    },
    {
      "type": "Feature",
      "properties": {
        "norad_id": 65942,
        "name": "BOTAN",
        "group": "stations",
        "lat": 31.734831620553315,
        "lon": -89.45698795730566,
        "alt_km": 374.2042462785166,
        "timestamp": "2025-12-16T13:52:36.307216+00:00",
        "meta_object_name": "BOTAN",
        "meta_object_id": "1998-067XP",
        "meta_epoch": "2025-12-15T15:48:54.878400",
        "meta_mean_motion": 15.63514528,
        "meta_eccentricity": 0.00029297,
        "meta_inclination": 51.6278,
        "meta_ra_of_asc_node": 124.5376,
        "meta_arg_of_pericenter": 262.4016,
        "meta_mean_anomaly": 97.6646,
        "meta_ephemeris_type": 0,
        "meta_classification_type": "U",
        "meta_norad_cat_id": 65942,
        "meta_element_set_no": 999,
        "meta_rev_at_epoch": 1032,
        "meta_bstar": 0.00087407179,
        "meta_mean_motion_dot": 0.00082884,
        "meta_mean_motion_ddot": 0,
        "tle_line1": "1 65942U 98067XP  25349.65896850  .00082884  00000+0  87407-3 0  9994",
        "tle_line2": "2 65942  51.6278 124.5376 0002929 262.4016  97.6646 15.63514528 10322"
      },
      "geometry": {
        "type": "Point",
        "coordinates": [
          -89.45698795730566,
          31.734831620553315
        ]
      }
    },
    {
      "type": "Feature",
      "properties": {
        "norad_id": 65943,
        "name": "E-KAGAKU-1",
        "group": "stations",
        "lat": 43.13844853421077,
        "lon": -107.2610567922905,
        "alt_km": 382.2261294682903,
        "timestamp": "2025-12-16T13:52:36.307226+00:00",
        "meta_object_name": "E-KAGAKU-1",
        "meta_object_id": "1998-067XQ",
        "meta_epoch": "2025-12-15T15:50:32.577792",
        "meta_mean_motion": 15.59851021,
        "meta_eccentricity": 0.00016366,
        "meta_inclination": 51.6292,
        "meta_ra_of_asc_node": 125.299,
        "meta_arg_of_pericenter": 221.4661,
        "meta_mean_anomaly": 138.6208,
        "meta_ephemeris_type": 0,
        "meta_classification_type": "U",
        "meta_norad_cat_id": 65943,
        "meta_element_set_no": 999,
        "meta_rev_at_epoch": 1031,
        "meta_bstar": 0.0006409113,
        "meta_mean_motion_dot": 0.00052357,
        "meta_mean_motion_ddot": 0,
        "tle_line1": "1 65943U 98067XQ  25349.66009928  .00052357  00000+0  64091-3 0  9994",
        "tle_line2": "2 65943  51.6292 125.2990 0001636 221.4661 138.6208 15.59851021 10310"
      },
      "geometry": {
        "type": "Point",
        "coordinates": [
          -107.2610567922905,
          43.13844853421077
        ]
      }
    },
    {
      "type": "Feature",
      "properties": {
        "norad_id": 66052,
        "name": "HRC MONOBLOCK CAMERA",
        "group": "stations",
        "lat": 21.55609822319424,
        "lon": 140.60315637060063,
        "alt_km": 403.3641060847285,
        "timestamp": "2025-12-16T13:52:36.307236+00:00",
        "meta_object_name": "HRC MONOBLOCK CAMERA",
        "meta_object_id": "1998-067XR",
        "meta_epoch": "2025-12-15T22:19:37.394688",
        "meta_mean_motion": 15.54370373,
        "meta_eccentricity": 0.00028854,
        "meta_inclination": 51.6289,
        "meta_ra_of_asc_node": 125.5959,
        "meta_arg_of_pericenter": 198.9504,
        "meta_mean_anomaly": 161.1379,
        "meta_ephemeris_type": 0,
        "meta_classification_type": "U",
        "meta_norad_cat_id": 66052,
        "meta_element_set_no": 999,
        "meta_rev_at_epoch": 933,
        "meta_bstar": 0.00046656817,
        "meta_mean_motion_dot": 0.00030802,
        "meta_mean_motion_ddot": 0,
        "tle_line1": "1 66052U 98067XR  25349.93029392  .00030802  00000+0  46657-3 0  9992",
        "tle_line2": "2 66052  51.6289 125.5959 0002885 198.9504 161.1379 15.54370373  9338"
      },
      "geometry": {
        "type": "Point",
        "coordinates": [
          140.60315637060063,
          21.55609822319424
        ]
      }
    }
  ]
}